[{"OBJECT_NAME":"BLACKJACK ACES-2","OBJECT_ID":"2023-084Z","EPOCH":"2026-03-09T22:41:57.112224","MEAN_MOTION":15.20437873,"ECCENTRICITY":5.883e-5,"INCLINATION":97.6035,"RA_OF_ASC_NODE":203.5392,"ARG_OF_PERICENTER":31.4555,"MEAN_ANOMALY":328.6715,"EPHEMERIS_TYPE":0,"CLASSIFICATION_TYPE":"U","NORAD_CAT_ID":56955,"ELEMENT_SET_NO":999,"REV_AT_EPOCH":15211,"BSTAR":0.00051478919,"MEAN_MOTION_DOT":0.00011167,"MEAN_MOTION_DDOT":0},{"OBJECT_NAME":"LVM3 R\/B","OBJECT_ID":"2025-309B","EPOCH":"2026-03-09T09:43:32.310048","MEAN_MOTION":15.20640009,"ECCENTRICITY":0.00083638,"INCLINATION":52.9312,"RA_OF_ASC_NODE":66.7134,"ARG_OF_PERICENTER":206.7636,"MEAN_ANOMALY":153.2927,"EPHEMERIS_TYPE":0,"CLASSIFICATION_TYPE":"U","NORAD_CAT_ID":67233,"ELEMENT_SET_NO":999,"REV_AT_EPOCH":1145,"BSTAR":0.00041930553,"MEAN_MOTION_DOT":9.009e-5,"MEAN_MOTION_DDOT":0}]
